ORBCOMM FM24            
1 25478U 98053D   25218.87822508  .00000774  00000+0  29891-3 0  9998
2 25478  45.0091  28.7304 0002951 131.3911 228.7191 14.38195575404744
ORBCOMM FM25            
1 25479U 98053E   25218.78109297  .00000688  00000+0  27121-3 0  9990
2 25479  45.0084  27.4685 0005332 140.1365 219.9876 14.38165939405027
ORBCOMM FM26            
1 25480U 98053F   25218.82590214  .00000669  00000+0  26985-3 0  9996
2 25480  45.0081  24.0809 0007078 156.3227 203.7948 14.37211991404931
ORBCOMM FM27            
1 25481U 98053G   25218.83717093  .00000809  00000+0  31035-3 0  9992
2 25481  45.0065  27.3871 0001588 144.5695 215.5259 14.38198068404966
ORBCOMM FM28            
1 25482U 98053H   25218.59050838  .00000653  00000+0  25850-3 0  9998
2 25482  45.0069 325.9878 0006254 197.6649 162.3983 14.38375703405617
ORBCOMM FM30            
1 25980U 99065A   25218.39305762  .00000524  00000+0  22110-3 0  9995
2 25980  45.0301 212.0602 0008681 267.9075  92.0780 14.37373934341672
ORBCOMM FM31            
1 25981U 99065B   25218.64651306  .00000508  00000+0  21609-3 0  9996
2 25981  45.0215 204.3370 0006251 289.4675  70.5498 14.37311505341267
ORBCOMM FM32            
1 25982U 99065C   25218.72655970  .00000565  00000+0  23913-3 0  9990
2 25982  45.0142 220.8772 0008649 282.7199  77.2682 14.36358913341864
